start=new Date('2021-12-28T00:00:00.000Z').valueOf();
sats=[{"SEMIMAJOR_AXIS":"6925.349","MEAN_ANOMALY":"264.8272","NORAD_CAT_ID":"46061","PERIAPSIS":"545.677","OBJECT_TYPE":"PAYLOAD","EPOCH":"2021-12-27T18:23:11.683680","TIME_SYSTEM":"UTC","BSTAR":"0.00004932500000","RCS_SIZE":"LARGE","ECCENTRICITY":"0.00022190","ARG_OF_PERICENTER":"95.2970","MEAN_MOTION_DDOT":"0.0000000000000","OBJECT_NAME":"STARLINK-1573","MEAN_MOTION":"15.06399866","OBJECT_ID":"2020-055AL","RA_OF_ASC_NODE":"158.1649","TLE_LINE1":"1 46061U 20055AL  21361.76610745  .00000453  00000-0  49325-4 0  9997","REV_AT_EPOCH":"7798","EPHEMERIS_TYPE":"0","APOAPSIS":"548.751","COUNTRY_CODE":"US","CENTER_NAME":"EARTH","INCLINATION":"53.0553","FILE":"3253114","DECAY_DATE":null,"MEAN_ELEMENT_THEORY":"SGP4","REF_FRAME":"TEME","LAUNCH_DATE":"2020-08-07","GP_ID":"192602840","SITE":"AFETR","ELEMENT_SET_NO":"999","CLASSIFICATION_TYPE":"U","PERIOD":"95.592","TLE_LINE2":"2 46061  53.0553 158.1649 0002219  95.2970 264.8272 15.06399866 77985","MEAN_MOTION_DOT":"0.00000453"},{"OBJECT_NAME":"STARLINK-1574","OBJECT_ID":"2020-055AM","MEAN_MOTION":"15.06401860","TLE_LINE1":"1 46062U 20055AM  21361.86562695  .00000600  00000-0  59203-4 0  9999","REV_AT_EPOCH":"7796","RA_OF_ASC_NODE":"157.7429","INCLINATION":"53.0550","CENTER_NAME":"EARTH","COUNTRY_CODE":"US","APOAPSIS":"548.766","EPHEMERIS_TYPE":"0","SEMIMAJOR_AXIS":"6925.343","MEAN_ANOMALY":"264.8102","NORAD_CAT_ID":"46062","EPOCH":"2021-12-27T20:46:30.168480","OBJECT_TYPE":"PAYLOAD","PERIAPSIS":"545.650","ECCENTRICITY":"0.00022500","RCS_SIZE":"LARGE","TIME_SYSTEM":"UTC","BSTAR":"0.00005920300000","MEAN_MOTION_DDOT":"0.0000000000000","ARG_OF_PERICENTER":"95.3143","LAUNCH_DATE":"2020-08-07","GP_ID":"192602587","PERIOD":"95.592","CLASSIFICATION_TYPE":"U","ELEMENT_SET_NO":"999","SITE":"AFETR","MEAN_MOTION_DOT":"0.00000600","TLE_LINE2":"2 46062  53.0550 157.7429 0002250  95.3143 264.8102 15.06401860 77960","REF_FRAME":"TEME","DECAY_DATE":null,"MEAN_ELEMENT_THEORY":"SGP4","FILE":"3253114"},{"FILE":"3253114","MEAN_ELEMENT_THEORY":"SGP4","DECAY_DATE":null,"REF_FRAME":"TEME","ELEMENT_SET_NO":"999","SITE":"AFETR","PERIOD":"95.592","CLASSIFICATION_TYPE":"U","TLE_LINE2":"2 46063  53.0550 157.7544 0002327 101.9235 258.2015 15.06398270 77993","MEAN_MOTION_DOT":"0.00000200","LAUNCH_DATE":"2020-08-07","GP_ID":"192601844","BSTAR":"0.00003233300000","TIME_SYSTEM":"UTC","RCS_SIZE":"LARGE","ECCENTRICITY":"0.00023270","MEAN_MOTION_DDOT":"0.0000000000000","ARG_OF_PERICENTER":"101.9235","SEMIMAJOR_AXIS":"6925.354","NORAD_CAT_ID":"46063","MEAN_ANOMALY":"258.2015","PERIAPSIS":"545.607","OBJECT_TYPE":"PAYLOAD","EPOCH":"2021-12-27T20:41:12.224256","RA_OF_ASC_NODE":"157.7544","TLE_LINE1":"1 46063U 20055AN  21361.86194704  .00000200  00000-0  32333-4 0  9993","REV_AT_EPOCH":"7799","APOAPSIS":"548.830","EPHEMERIS_TYPE":"0","COUNTRY_CODE":"US","CENTER_NAME":"EARTH","INCLINATION":"53.0550","OBJECT_NAME":"STARLINK-1577","MEAN_MOTION":"15.06398270","OBJECT_ID":"2020-055AN"},{"OBJECT_ID":"2020-055AP","MEAN_MOTION":"15.06397418","OBJECT_NAME":"STARLINK-1583","CENTER_NAME":"EARTH","COUNTRY_CODE":"US","INCLINATION":"53.0553","APOAPSIS":"548.797","EPHEMERIS_TYPE":"0","RA_OF_ASC_NODE":"157.8865","TLE_LINE1":"1 46064U 20055AP  21361.82876731  .00001383  00000-0  11177-3 0  9992","REV_AT_EPOCH":"7799","EPOCH":"2021-12-27T19:53:25.495584","OBJECT_TYPE":"PAYLOAD","PERIAPSIS":"545.646","NORAD_CAT_ID":"46064","SEMIMAJOR_AXIS":"6925.356","MEAN_ANOMALY":"270.0282","ARG_OF_PERICENTER":"90.0968","MEAN_MOTION_DDOT":"0.0000000000000","RCS_SIZE":"LARGE","ECCENTRICITY":"0.00022750","BSTAR":"0.00011177000000","TIME_SYSTEM":"UTC","GP_ID":"192602092","LAUNCH_DATE":"2020-08-07","MEAN_MOTION_DOT":"0.00001383","TLE_LINE2":"2 46064  53.0553 157.8865 0002275  90.0968 270.0282 15.06397418 77998","PERIOD":"95.592","CLASSIFICATION_TYPE":"U","SITE":"AFETR","ELEMENT_SET_NO":"999","MEAN_ELEMENT_THEORY":"SGP4","DECAY_DATE":null,"REF_FRAME":"TEME","FILE":"3253114"},{"MEAN_MOTION_DDOT":"0.0000000000000","ARG_OF_PERICENTER":"97.5643","RCS_SIZE":"LARGE","ECCENTRICITY":"0.00017170","TIME_SYSTEM":"UTC","BSTAR":"0.00004628300000","EPOCH":"2021-12-27T18:08:33.291168","PERIAPSIS":"546.038","OBJECT_TYPE":"PAYLOAD","SEMIMAJOR_AXIS":"6925.362","MEAN_ANOMALY":"262.5541","NORAD_CAT_ID":"46065","CENTER_NAME":"EARTH","COUNTRY_CODE":"US","INCLINATION":"53.0504","APOAPSIS":"548.417","EPHEMERIS_TYPE":"0","RA_OF_ASC_NODE":"138.2376","TLE_LINE1":"1 46065U 20055AQ  21361.75594087  .00000408  00000-0  46283-4 0  9990","REV_AT_EPOCH":"7824","OBJECT_ID":"2020-055AQ","MEAN_MOTION":"15.06395478","OBJECT_NAME":"STARLINK-1515","DECAY_DATE":null,"MEAN_ELEMENT_THEORY":"SGP4","REF_FRAME":"TEME","FILE":"3253114","MEAN_MOTION_DOT":"0.00000408","TLE_LINE2":"2 46065  53.0504 138.2376 0001717  97.5643 262.5541 15.06395478 78244","CLASSIFICATION_TYPE":"U","PERIOD":"95.592","SITE":"AFETR","ELEMENT_SET_NO":"999","GP_ID":"192602340","LAUNCH_DATE":"2020-08-07"},{"FILE":"3253114","MEAN_ELEMENT_THEORY":"SGP4","DECAY_DATE":null,"REF_FRAME":"TEME","ELEMENT_SET_NO":"999","SITE":"AFETR","PERIOD":"95.593","CLASSIFICATION_TYPE":"U","TLE_LINE2":"2 46066  53.0546 138.5057 0001675  91.4897 268.6284 15.06385102 78241","MEAN_MOTION_DOT":"0.00000453","LAUNCH_DATE":"2020-08-07","GP_ID":"192603088","TIME_SYSTEM":"UTC","BSTAR":"0.00004931700000","RCS_SIZE":"LARGE","ECCENTRICITY":"0.00016750","ARG_OF_PERICENTER":"91.4897","MEAN_MOTION_DDOT":"0.0000000000000","SEMIMAJOR_AXIS":"6925.394","NORAD_CAT_ID":"46066","MEAN_ANOMALY":"268.6284","PERIAPSIS":"546.099","OBJECT_TYPE":"PAYLOAD","EPOCH":"2021-12-27T16:39:41.656032","RA_OF_ASC_NODE":"138.5057","TLE_LINE1":"1 46066U 20055AR  21361.69423213  .00000453  00000-0  49317-4 0  9997","REV_AT_EPOCH":"7824","APOAPSIS":"548.419","EPHEMERIS_TYPE":"0","COUNTRY_CODE":"US","CENTER_NAME":"EARTH","INCLINATION":"53.0546","OBJECT_NAME":"STARLINK-1525","OBJECT_ID":"2020-055AR","MEAN_MOTION":"15.06385102"},{"REF_FRAME":"TEME","DECAY_DATE":null,"MEAN_ELEMENT_THEORY":"SGP4","FILE":"3253114","GP_ID":"192601344","LAUNCH_DATE":"2020-08-07","MEAN_MOTION_DOT":"0.00000258","TLE_LINE2":"2 46067  53.0538 138.1922 0001503  89.4376 270.6786 15.06389097 78268","CLASSIFICATION_TYPE":"U","PERIOD":"95.593","SITE":"AFETR","ELEMENT_SET_NO":"999","EPOCH":"2021-12-27T18:20:32.296416","PERIAPSIS":"546.206","OBJECT_TYPE":"PAYLOAD","SEMIMAJOR_AXIS":"6925.382","NORAD_CAT_ID":"46067","MEAN_ANOMALY":"270.6786","ARG_OF_PERICENTER":"89.4376","MEAN_MOTION_DDOT":"0.0000000000000","ECCENTRICITY":"0.00015030","RCS_SIZE":"LARGE","BSTAR":"0.00003622300000","TIME_SYSTEM":"UTC","OBJECT_ID":"2020-055AS","MEAN_MOTION":"15.06389097","OBJECT_NAME":"STARLINK-1529","INCLINATION":"53.0538","COUNTRY_CODE":"US","CENTER_NAME":"EARTH","EPHEMERIS_TYPE":"0","APOAPSIS":"548.288","TLE_LINE1":"1 46067U 20055AS  21361.76426269  .00000258  00000-0  36223-4 0  9995","REV_AT_EPOCH":"7826","RA_OF_ASC_NODE":"138.1922"},{"MEAN_MOTION":"15.06387316","OBJECT_ID":"2020-055AT","OBJECT_NAME":"STARLINK-1532","INCLINATION":"53.0546","COUNTRY_CODE":"US","CENTER_NAME":"EARTH","APOAPSIS":"548.584","EPHEMERIS_TYPE":"0","REV_AT_EPOCH":"7825","TLE_LINE1":"1 46068U 20055AT  21361.70897626  .00000291  00000-0  38449-4 0  9998","RA_OF_ASC_NODE":"138.4274","EPOCH":"2021-12-27T17:00:55.548864","PERIAPSIS":"545.921","OBJECT_TYPE":"PAYLOAD","SEMIMAJOR_AXIS":"6925.387","MEAN_ANOMALY":"263.8334","NORAD_CAT_ID":"46068","MEAN_MOTION_DDOT":"0.0000000000000","ARG_OF_PERICENTER":"96.2874","ECCENTRICITY":"0.00019230","RCS_SIZE":"LARGE","BSTAR":"0.00003844900000","TIME_SYSTEM":"UTC","GP_ID":"192601592","LAUNCH_DATE":"2020-08-07","MEAN_MOTION_DOT":"0.00000291","TLE_LINE2":"2 46068  53.0546 138.4274 0001923  96.2874 263.8334 15.06387316 78250","PERIOD":"95.593","CLASSIFICATION_TYPE":"U","SITE":"AFETR","ELEMENT_SET_NO":"999","REF_FRAME":"TEME","MEAN_ELEMENT_THEORY":"SGP4","DECAY_DATE":null,"FILE":"3253114"},{"GP_ID":"192602841","LAUNCH_DATE":"2020-08-07","MEAN_MOTION_DOT":"0.00000721","TLE_LINE2":"2 46069  53.0524 137.7704 0001901  91.0601 269.0605 15.06395289 78284","PERIOD":"95.592","CLASSIFICATION_TYPE":"U","ELEMENT_SET_NO":"999","SITE":"AFETR","MEAN_ELEMENT_THEORY":"SGP4","DECAY_DATE":null,"REF_FRAME":"TEME","FILE":"3253114","MEAN_MOTION":"15.06395289","OBJECT_ID":"2020-055AU","OBJECT_NAME":"STARLINK-1533","COUNTRY_CODE":"US","CENTER_NAME":"EARTH","INCLINATION":"53.0524","EPHEMERIS_TYPE":"0","APOAPSIS":"548.545","TLE_LINE1":"1 46069U 20055AU  21361.85640895  .00000721  00000-0  67299-4 0  9992","REV_AT_EPOCH":"7828","RA_OF_ASC_NODE":"137.7704","EPOCH":"2021-12-27T20:33:13.733280","PERIAPSIS":"545.911","OBJECT_TYPE":"PAYLOAD","SEMIMAJOR_AXIS":"6925.363","NORAD_CAT_ID":"46069","MEAN_ANOMALY":"269.0605","MEAN_MOTION_DDOT":"0.0000000000000","ARG_OF_PERICENTER":"91.0601","RCS_SIZE":"LARGE","ECCENTRICITY":"0.00019010","BSTAR":"0.00006729900000","TIME_SYSTEM":"UTC"},{"APOAPSIS":"548.603","EPHEMERIS_TYPE":"0","COUNTRY_CODE":"US","CENTER_NAME":"EARTH","INCLINATION":"53.0538","TLE_LINE1":"1 46070U 20055AV  21361.80480004  .00000545  00000-0  55488-4 0  9994","REV_AT_EPOCH":"7827","RA_OF_ASC_NODE":"138.0008","OBJECT_ID":"2020-055AV","MEAN_MOTION":"15.06398043","OBJECT_NAME":"STARLINK-1536","MEAN_MOTION_DDOT":"0.0000000000000","ARG_OF_PERICENTER":"92.0297","TIME_SYSTEM":"UTC","BSTAR":"0.00005548800000","RCS_SIZE":"LARGE","ECCENTRICITY":"0.00019970","OBJECT_TYPE":"PAYLOAD","PERIAPSIS":"545.837","EPOCH":"2021-12-27T19:18:54.723456","MEAN_ANOMALY":"268.0920","SEMIMAJOR_AXIS":"6925.355","NORAD_CAT_ID":"46070","TLE_LINE2":"2 46070  53.0538 138.0008 0001997  92.0297 268.0920 15.06398043 78278","MEAN_MOTION_DOT":"0.00000545","SITE":"AFETR","ELEMENT_SET_NO":"999","CLASSIFICATION_TYPE":"U","PERIOD":"95.592","GP_ID":"192602588","LAUNCH_DATE":"2020-08-07","FILE":"3253114","DECAY_DATE":null,"MEAN_ELEMENT_THEORY":"SGP4","REF_FRAME":"TEME"}];
